0 COSMOS 1275 DEB
1 17624U 81053KW  13283.04973736  .00002142  00000-0  99273-3 0  5496
2 17624 082.8553 280.3641 0015008 247.7309 176.0277 14.20327615462545
0 COSMOS 1275 DEB
1 17624U 81053KW  13286.00656891  .00002402  00000-0  11140-2 0  5513
2 17624 082.8551 277.9731 0014999 239.0485 174.6888 14.20338737462967
0 COSMOS 1275 DEB
1 17624U 81053KW  13287.43547076  .00002778  00000-0  12892-2 0  5527
2 17624 082.8550 276.8173 0015003 234.3853 281.3686 14.20344186463168
0 COSMOS 1275 DEB
1 17624U 81053KW  13288.96671810  .00003408  00000-0  15828-2 0  5534
2 17624 082.8548 275.5781 0015014 228.8383 191.9804 14.20354185463386
0 COSMOS 1275 DEB
1 17624U 81053KW  13290.30618208  .00003143  00000-0  14594-2 0  5543
2 17624 082.8550 274.4942 0015049 224.5811 201.2773 14.20361088463574
0 COSMOS 1275 DEB
1 17624U 81053KW  13291.44515795  .00002888  00000-0  13400-2 0  5557
2 17624 082.8553 273.5722 0015039 220.8006 265.5772 14.20367646463733
0 COSMOS 1275 DEB
1 17624U 81053KW  13293.26429551  .00003528  00000-0  16382-2 0  5568
2 17624 082.8559 272.1008 0015132 215.0086 207.7858 14.20377019463995
0 COSMOS 1275 DEB
1 17624U 81053KW  13294.40900284  .00003514  00000-0  16317-2 0  5576
2 17624 082.8560 271.1749 0015201 211.3638 301.2992 14.20382122464156
0 COSMOS 1275 DEB
1 17624U 81053KW  13295.67105444  .00003656  00000-0  16974-2 0  5588
2 17624 082.8563 270.1544 0015245 207.2934 274.9431 14.20389962464335
